POLYITAN-1              
1 40042U 14033AJ  26195.58418793  .00010977  00000+0  33385-3 0  9997
2 40042  98.0932 224.4557 0007975  65.9941 294.2133 15.34205321657798
TIGRISAT                
1 40043U 14033AK  26195.33399963  .00000784  00000+0  95872-4 0  9993
2 40043  97.7862 344.7296 0048698 347.1881  12.8092 14.85248130649652
AEROCUBE 6A             
1 40045U 14033AM  26195.40620934  .00003113  00000+0  26301-3 0  9997
2 40045  97.7242   2.0715 0036370 283.7155  76.0019 14.98338309650698
AEROCUBE 6B             
1 40046U 14033AN  26195.44876644  .00002635  00000+0  21486-3 0  9990
2 40046  97.7198   1.9598 0038033 272.7240  86.9630 14.99794321650844
CANX-4                  
1 40055U 14034C   26195.64451356  .00000435  00000+0  63095-4 0  9991
2 40055  98.3084  71.9612 0011438 284.8377  75.1567 14.81310620648599
CANX-5                  
1 40056U 14034D   26195.64262607  .00000437  00000+0  63260-4 0  9997
2 40056  98.3086  72.0044 0011436 285.0734  74.9212 14.81327975639406
UKUBE-1                 
1 40074U 14037F   26195.53433696  .00004082  00000+0  22957-3 0  9993
2 40074  98.4242 201.6884 0003303  89.0396 271.1211 15.13944231652695
BRITE-PL2 (HEWELIUSZ)   
1 40119U 14049B   26195.55362018  .00000560  00000+0  57099-4 0  9990
2 40119  97.9120 307.7691 0014396  24.3695 335.8202 14.94686242645532
AEROCUBE 5C             
1 40965U 15058B   26195.32618646  .00001764  00000+0  16362-3 0  9990
2 40965  64.7652 178.1530 0132281  52.7587 308.5506 14.91572903369705
AEROCUBE 7              
1 40966U 15058C   26195.51191980  .00002819  00000+0  23039-3 0  9990
2 40966  64.7610 159.2159 0122011  51.0141 310.1765 14.95909907370042
FOX-1A (AO-85)          
1 40967U 15058D   26195.44966474  .00001665  00000+0  15724-3 0  9991
2 40967  64.7725 194.2515 0132302  46.0955 315.0989 14.91085582117632
SINOD-D 1               
1 40968U 15058E   26195.35294344  .00002777  00000+0  22665-3 0  9999
2 40968  64.7732 173.8274 0120993  42.4784 318.5615 14.96082878120727
SNAP-3 ALICE            
1 40970U 15058G   26195.61169512  .00092922  00000+0  84346-3 0  9994
2 40970  64.7491   8.6281 0024541 348.6868  11.3726 15.67107790121172
LMRST-SAT               
1 40971U 15058H   26195.41197421  .00001604  00000+0  15301-3 0  9995
2 40971  64.7731 190.7587 0133838  48.1094 313.1343 14.90700627117610
SNAP-3 EDDIE            
1 40972U 15058J   26195.57978101  .00104262  00000+0  89192-3 0  9998
2 40972  64.7401 359.2544 0025421 351.1847   8.8853 15.68485561123312
PROPCUBE 3              
1 40973U 15058K   26195.31347639  .00002337  00000+0  19953-3 0  9995
2 40973  64.7668 167.7721 0125710  49.3408 311.8552 14.94411538118855
BISONSAT                
1 40974U 15058L   26195.13586013  .00008955  00000+0  42414-3 0  9997
2 40974  64.7585  86.4661 0081980  36.3271 324.3379 15.16915005119702
SNAP-3 JIMI             
1 40975U 15058M   26195.21358746  .00004360  00000+0  30026-3 0  9999
2 40975  64.7645 134.2428 0107787  44.6929 316.2812 15.02600450118283
PROPCUBE 1 (FLORA)      
1 40976U 15058N   26195.39191994  .00001263  00000+0  12865-3 0  9999
2 40976  64.7718 210.9135 0132416  50.3966 310.8748 14.89325455120312
SINOD-D 3               
1 40977U 15058P   26195.34949689  .00002279  00000+0  19838-3 0  9992
2 40977  64.7701 190.9882 0120976  47.4631 313.6620 14.94169664118811
RAVAN                   
1 41849U 16067B   26195.63125253  .00035918  00000+0  49002-3 0  9999
2 41849  97.9847  88.4289 0002154 219.3997 140.7101 15.57424181531969
CELTEE 1                
1 41850U 16067C   26195.59607315  .00002925  00000+0  13972-3 0  9999
2 41850  98.0636  64.0325 0002329 111.0586 249.0897 15.19937383530040
OPTICUBE 04             
1 41851U 16067D   26195.58488110  .00001061  00000+0  70005-4 0  9990
2 41851  98.0673  49.2962 0016211  29.8030 330.4117 15.09770662529300
AEROCUBE 8D             
1 41852U 16067E   26195.39326837  .00004453  00000+0  18302-3 0  9996
2 41852  98.0647  67.6366 0004629  58.5584 301.6104 15.24763137530211
AEROCUBE 8C             
1 41853U 16067F   26195.61059530  .00004132  00000+0  16881-3 0  9999
2 41853  98.0521  65.0631 0004332 343.7365  16.3731 15.25019050530245
CORVUS BC2              
1 42846U 17042X   26195.42959660  .00001298  00000+0  91874-4 0  9994
2 42846  97.4090 355.7268 0013523  25.6312 334.5584 15.06454543491164
CORVUS BC1              
1 42847U 17042Y   26195.42120606  .00001251  00000+0  88366-4 0  9996
2 42847  97.4119 356.5502 0011734   2.9790 357.1506 15.06617331491191
MAKERSAT 0              
1 43016U 17073D   26195.60318524  .00011617  00000+0  30730-3 0  9995
2 43016  97.4584  78.3470 0105407 174.3522 185.8937 15.32992920470669
SIRION PATHFINDER-2     
1 43759U 18099B   26195.39977888  .00002375  00000+0  13144-3 0  9999
2 43759  97.4240 243.8120 0008393 194.3555 165.7440 15.14773961416744
CORVUS BC4              
1 43767U 18099K   26195.57574659  .00002070  00000+0  12184-3 0  9992
2 43767  97.4053 237.7554 0006491 263.5403  96.5089 15.12699761416547
